SL-8 R/B                
1 11574U 79089B   26062.57251226  .00000325  00000+0  10634-3 0  9993
2 11574  74.0674 102.3686 0017125 275.6578  84.2626 14.42345935435224
SL-14 R/B               
1 11672U 80005B   26062.88872799  .00000777  00000+0  76026-4 0  9999
2 11672  82.5156 312.7384 0015666 177.2009 182.9301 14.90922472475622
SL-8 R/B                
1 12139U 81003B   26062.70862944  .00022464  00000+0  58012-3 0  9990
2 12139  82.9390 295.5547 0262728 199.4098 159.6988 15.10699071313779
SL-3 R/B                
1 12465U 81046B   26062.94388491  .00017380  00000+0  40631-3 0  9994
2 12465  81.2308 296.6439 0020037  41.7625 318.5142 15.41817367437548
SL-3 R/B                
1 12904U 81103B   26062.91857247  .00008466  00000+0  37673-3 0  9990
2 12904  81.1572 220.2015 0012501 307.7190  52.2907 15.21289038972350
SL-3 R/B                
1 13068U 82013B   26062.92907112  .00006654  00000+0  28886-3 0  9994
2 13068  81.1769 167.5204 0022348 196.9867 163.0619 15.21944854403479
SL-3 R/B                
1 13154U 82039B   26062.89196175  .00004002  00000+0  24215-3 0  9990
2 13154  81.1580 222.6460 0029877 343.3397  16.6844 15.10040046380760
SL-3 R/B                
1 13403U 82079B   26062.89185485  .00009235  00000+0  36920-3 0  9992
2 13403  81.1474 199.9215 0024820 184.3878 175.7142 15.24693344376812
SL-14 R/B               
1 13553U 82092B   26062.73094363  .00000655  00000+0  70824-4 0  9999
2 13553  82.5703 146.9721 0019382 324.5302 152.1074 14.86659408328044
SL-3 R/B                
1 13819U 83010B   26062.28954010  .00019262  00000+0  39033-3 0  9999
2 13819  81.1059  10.0905 0018467  71.2910 289.0337 15.46076306356957
SL-3 R/B                
1 14208U 83075B   26062.96292465  .00015714  00000+0  41624-3 0  9994
2 14208  97.6133  67.3238 0019734 248.3145 111.5998 15.38249840329277
COSMOS 1536             
1 14699U 84013A   26062.61276385  .00008392  00000+0  34723-3 0  9992
2 14699  82.5438 113.8915 0012820 307.3578  52.6491 15.23730274271691
SL-14 R/B               
1 14820U 84027B   26062.56543012  .00000631  00000+0  69372-4 0  9998
2 14820  82.5381 250.7582 0017893 358.7280   1.3888 14.85968921246726
SL-8 R/B                
1 15483U 85006B   26062.74708582  .00000204  00000+0  76492-4 0  9994
2 15483  74.0434 272.0844 0018693 191.2425 247.4254 14.37778344153176
SL-12 R/B(2)            
1 15772U 85042D   26062.59506191  .00000177  00000+0  10122-3 0  9996
2 15772  71.1064 100.6061 0033521 138.1204  30.3058 14.21980541113526
SL-14 R/B               
1 15945U 85069B   26062.82133637  .00000716  00000+0  78224-4 0  9991
2 15945  82.5272  30.4506 0017958 207.6581 152.3682 14.86424880171965
SL-16 R/B               
1 16182U 85097B   26062.71188084 -.00000009  00000+0  19394-4 0  9999
2 16182  71.0037 153.1385 0009957 266.8264 204.2668 14.16599704 86387
