[{"OBJECT_NAME":"SL-8 R/B","OBJECT_ID":"1979-089B","EPOCH":"2026-03-03T13:44:25.059264","MEAN_MOTION":14.42345935,"ECCENTRICITY":0.0017125,"INCLINATION":74.0674,"RA_OF_ASC_NODE":102.3686,"ARG_OF_PERICENTER":275.6578,"MEAN_ANOMALY":84.2626,"EPHEMERIS_TYPE":0,"CLASSIFICATION_TYPE":"U","NORAD_CAT_ID":11574,"ELEMENT_SET_NO":999,"REV_AT_EPOCH":43522,"BSTAR":0.00010634,"MEAN_MOTION_DOT":3.25e-6,"MEAN_MOTION_DDOT":0},{"OBJECT_NAME":"SL-14 R/B","OBJECT_ID":"1980-005B","EPOCH":"2026-03-03T21:19:46.098336","MEAN_MOTION":14.90922472,"ECCENTRICITY":0.00156669,"INCLINATION":82.5156,"RA_OF_ASC_NODE":312.7384,"ARG_OF_PERICENTER":177.2009,"MEAN_ANOMALY":182.9301,"EPHEMERIS_TYPE":0,"CLASSIFICATION_TYPE":"U","NORAD_CAT_ID":11672,"ELEMENT_SET_NO":999,"REV_AT_EPOCH":47562,"BSTAR":7.6026064e-5,"MEAN_MOTION_DOT":7.77e-6,"MEAN_MOTION_DDOT":0},{"OBJECT_NAME":"SL-8 R/B","OBJECT_ID":"1981-003B","EPOCH":"2026-03-03T17:00:25.583616","MEAN_MOTION":15.10699071,"ECCENTRICITY":0.02627281,"INCLINATION":82.939,"RA_OF_ASC_NODE":295.5547,"ARG_OF_PERICENTER":199.4098,"MEAN_ANOMALY":159.6988,"EPHEMERIS_TYPE":0,"CLASSIFICATION_TYPE":"U","NORAD_CAT_ID":12139,"ELEMENT_SET_NO":999,"REV_AT_EPOCH":31377,"BSTAR":0.00058011814,"MEAN_MOTION_DOT":0.00022464,"MEAN_MOTION_DDOT":0},{"OBJECT_NAME":"SL-3 R/B","OBJECT_ID":"1981-046B","EPOCH":"2026-03-03T22:39:11.656224","MEAN_MOTION":15.41817367,"ECCENTRICITY":0.00200377,"INCLINATION":81.2308,"RA_OF_ASC_NODE":296.6439,"ARG_OF_PERICENTER":41.7625,"MEAN_ANOMALY":318.5142,"EPHEMERIS_TYPE":0,"CLASSIFICATION_TYPE":"U","NORAD_CAT_ID":12465,"ELEMENT_SET_NO":999,"REV_AT_EPOCH":43754,"BSTAR":0.00040630577,"MEAN_MOTION_DOT":0.0001738,"MEAN_MOTION_DDOT":0},{"OBJECT_NAME":"SL-3 R/B","OBJECT_ID":"1981-103B","EPOCH":"2026-03-03T22:02:44.661408","MEAN_MOTION":15.21289038,"ECCENTRICITY":0.00125015,"INCLINATION":81.1572,"RA_OF_ASC_NODE":220.2015,"ARG_OF_PERICENTER":307.719,"MEAN_ANOMALY":52.2907,"EPHEMERIS_TYPE":0,"CLASSIFICATION_TYPE":"U","NORAD_CAT_ID":12904,"ELEMENT_SET_NO":999,"REV_AT_EPOCH":97235,"BSTAR":0.00037673354,"MEAN_MOTION_DOT":8.466e-5,"MEAN_MOTION_DDOT":0},{"OBJECT_NAME":"SL-3 R/B","OBJECT_ID":"1982-013B","EPOCH":"2026-03-03T22:17:51.744768","MEAN_MOTION":15.21944854,"ECCENTRICITY":0.00223488,"INCLINATION":81.1769,"RA_OF_ASC_NODE":167.5204,"ARG_OF_PERICENTER":196.9867,"MEAN_ANOMALY":163.0619,"EPHEMERIS_TYPE":0,"CLASSIFICATION_TYPE":"U","NORAD_CAT_ID":13068,"ELEMENT_SET_NO":999,"REV_AT_EPOCH":40347,"BSTAR":0.00028885973,"MEAN_MOTION_DOT":6.654e-5,"MEAN_MOTION_DDOT":0},{"OBJECT_NAME":"SL-3 R/B","OBJECT_ID":"1982-039B","EPOCH":"2026-03-03T21:24:25.495200","MEAN_MOTION":15.10040046,"ECCENTRICITY":0.00298776,"INCLINATION":81.158,"RA_OF_ASC_NODE":222.646,"ARG_OF_PERICENTER":343.3397,"MEAN_ANOMALY":16.6844,"EPHEMERIS_TYPE":0,"CLASSIFICATION_TYPE":"U","NORAD_CAT_ID":13154,"ELEMENT_SET_NO":999,"REV_AT_EPOCH":38076,"BSTAR":0.00024215324,"MEAN_MOTION_DOT":4.002e-5,"MEAN_MOTION_DDOT":0},{"OBJECT_NAME":"SL-3 R/B","OBJECT_ID":"1982-079B","EPOCH":"2026-03-03T21:24:16.259040","MEAN_MOTION":15.24693344,"ECCENTRICITY":0.00248208,"INCLINATION":81.1474,"RA_OF_ASC_NODE":199.9215,"ARG_OF_PERICENTER":184.3878,"MEAN_ANOMALY":175.7142,"EPHEMERIS_TYPE":0,"CLASSIFICATION_TYPE":"U","NORAD_CAT_ID":13403,"ELEMENT_SET_NO":999,"REV_AT_EPOCH":37681,"BSTAR":0.00036920115,"MEAN_MOTION_DOT":9.235e-5,"MEAN_MOTION_DDOT":0},{"OBJECT_NAME":"SL-14 R/B","OBJECT_ID":"1982-092B","EPOCH":"2026-03-03T17:32:33.529632","MEAN_MOTION":14.86659408,"ECCENTRICITY":0.00193824,"INCLINATION":82.5703,"RA_OF_ASC_NODE":146.9721,"ARG_OF_PERICENTER":324.5302,"MEAN_ANOMALY":152.1074,"EPHEMERIS_TYPE":0,"CLASSIFICATION_TYPE":"U","NORAD_CAT_ID":13553,"ELEMENT_SET_NO":999,"REV_AT_EPOCH":32804,"BSTAR":7.0824038e-5,"MEAN_MOTION_DOT":6.55e-6,"MEAN_MOTION_DDOT":0},{"OBJECT_NAME":"SL-3 R/B","OBJECT_ID":"1983-010B","EPOCH":"2026-03-03T06:56:56.264640","MEAN_MOTION":15.46076306,"ECCENTRICITY":0.00184672,"INCLINATION":81.1059,"RA_OF_ASC_NODE":10.0905,"ARG_OF_PERICENTER":71.291,"MEAN_ANOMALY":289.0337,"EPHEMERIS_TYPE":0,"CLASSIFICATION_TYPE":"U","NORAD_CAT_ID":13819,"ELEMENT_SET_NO":999,"REV_AT_EPOCH":35695,"BSTAR":0.00039033017,"MEAN_MOTION_DOT":0.00019262,"MEAN_MOTION_DDOT":0},{"OBJECT_NAME":"SL-3 R/B","OBJECT_ID":"1983-075B","EPOCH":"2026-03-03T23:06:36.689760","MEAN_MOTION":15.3824984,"ECCENTRICITY":0.00197343,"INCLINATION":97.6133,"RA_OF_ASC_NODE":67.3238,"ARG_OF_PERICENTER":248.3145,"MEAN_ANOMALY":111.5998,"EPHEMERIS_TYPE":0,"CLASSIFICATION_TYPE":"U","NORAD_CAT_ID":14208,"ELEMENT_SET_NO":999,"REV_AT_EPOCH":32927,"BSTAR":0.00041623516,"MEAN_MOTION_DOT":0.00015714,"MEAN_MOTION_DDOT":0},{"OBJECT_NAME":"COSMOS 1536","OBJECT_ID":"1984-013A","EPOCH":"2026-03-03T14:42:22.796640","MEAN_MOTION":15.23730274,"ECCENTRICITY":0.001282,"INCLINATION":82.5438,"RA_OF_ASC_NODE":113.8915,"ARG_OF_PERICENTER":307.3578,"MEAN_ANOMALY":52.6491,"EPHEMERIS_TYPE":0,"CLASSIFICATION_TYPE":"U","NORAD_CAT_ID":14699,"ELEMENT_SET_NO":999,"REV_AT_EPOCH":27169,"BSTAR":0.00034723,"MEAN_MOTION_DOT":8.392e-5,"MEAN_MOTION_DDOT":0},{"OBJECT_NAME":"SL-14 R/B","OBJECT_ID":"1984-027B","EPOCH":"2026-03-03T13:34:13.162368","MEAN_MOTION":14.85968921,"ECCENTRICITY":0.0017893,"INCLINATION":82.5381,"RA_OF_ASC_NODE":250.7582,"ARG_OF_PERICENTER":358.728,"MEAN_ANOMALY":1.3888,"EPHEMERIS_TYPE":0,"CLASSIFICATION_TYPE":"U","NORAD_CAT_ID":14820,"ELEMENT_SET_NO":999,"REV_AT_EPOCH":24672,"BSTAR":6.9372e-5,"MEAN_MOTION_DOT":6.31e-6,"MEAN_MOTION_DDOT":0},{"OBJECT_NAME":"SL-8 R/B","OBJECT_ID":"1985-006B","EPOCH":"2026-03-03T17:55:48.214848","MEAN_MOTION":14.37778344,"ECCENTRICITY":0.00186936,"INCLINATION":74.0434,"RA_OF_ASC_NODE":272.0844,"ARG_OF_PERICENTER":191.2425,"MEAN_ANOMALY":247.4254,"EPHEMERIS_TYPE":0,"CLASSIFICATION_TYPE":"U","NORAD_CAT_ID":15483,"ELEMENT_SET_NO":999,"REV_AT_EPOCH":15317,"BSTAR":7.6492107e-5,"MEAN_MOTION_DOT":2.04e-6,"MEAN_MOTION_DDOT":0},{"OBJECT_NAME":"SL-12 R/B(2)","OBJECT_ID":"1985-042D","EPOCH":"2026-03-03T14:16:53.349024","MEAN_MOTION":14.21980541,"ECCENTRICITY":0.0033521,"INCLINATION":71.1064,"RA_OF_ASC_NODE":100.6061,"ARG_OF_PERICENTER":138.1204,"MEAN_ANOMALY":30.3058,"EPHEMERIS_TYPE":0,"CLASSIFICATION_TYPE":"U","NORAD_CAT_ID":15772,"ELEMENT_SET_NO":999,"REV_AT_EPOCH":11352,"BSTAR":0.00010122,"MEAN_MOTION_DOT":1.77e-6,"MEAN_MOTION_DDOT":0},{"OBJECT_NAME":"SL-14 R/B","OBJECT_ID":"1985-069B","EPOCH":"2026-03-03T19:42:43.462368","MEAN_MOTION":14.8642488,"ECCENTRICITY":0.00179588,"INCLINATION":82.5272,"RA_OF_ASC_NODE":30.4506,"ARG_OF_PERICENTER":207.6581,"MEAN_ANOMALY":152.3682,"EPHEMERIS_TYPE":0,"CLASSIFICATION_TYPE":"U","NORAD_CAT_ID":15945,"ELEMENT_SET_NO":999,"REV_AT_EPOCH":17196,"BSTAR":7.8224122e-5,"MEAN_MOTION_DOT":7.16e-6,"MEAN_MOTION_DDOT":0},{"OBJECT_NAME":"SL-16 R/B","OBJECT_ID":"1985-097B","EPOCH":"2026-03-03T17:05:06.504576","MEAN_MOTION":14.16599704,"ECCENTRICITY":0.00099571,"INCLINATION":71.0037,"RA_OF_ASC_NODE":153.1385,"ARG_OF_PERICENTER":266.8264,"MEAN_ANOMALY":204.2668,"EPHEMERIS_TYPE":0,"CLASSIFICATION_TYPE":"U","NORAD_CAT_ID":16182,"ELEMENT_SET_NO":999,"REV_AT_EPOCH":8638,"BSTAR":1.9393807e-5,"MEAN_MOTION_DOT":-9.0e-8,"MEAN_MOTION_DDOT":0}]
